{"type": "FeatureCollection", "features": [ {"type": "Feature", "properties": {"norad_id": 43010, "name": "FENGYUN 3D", "group": "weather", "lat": 33.67864159059462, "lon": -45.77498974115468, "alt_km": 824.76153071527, "timestamp": "2025-12-19T20:42:59.723804+00:00", "meta": {"OBJECT_NAME": "FENGYUN 3D", "OBJECT_ID": "2017-072A", "EPOCH": "2025-12-19T07:01:28.293312", "MEAN_MOTION": 14.19686266, "ECCENTRICITY": 0.00012827, "INCLINATION": 98.9892, "RA_OF_ASC_NODE": 319.701, "ARG_OF_PERICENTER": 160.8695, "MEAN_ANOMALY": 199.2529, "EPHEMERIS_TYPE": 0, "CLASSIFICATION_TYPE": "U", "NORAD_CAT_ID": 43010, "ELEMENT_SET_NO": 999, "REV_AT_EPOCH": 41946, "BSTAR": 5.6813807e-05, "MEAN_MOTION_DOT": 7.4e-07, "MEAN_MOTION_DDOT": 0}, "tle": {"line1": "1 43010U 17072A   25353.29268858  .00000074  00000+0  56814-4 0  9999", "line2": "2 43010  98.9892 319.7010 0001282 160.8695 199.2529 14.19686266419464"}}, "geometry": {"type": "Point", "coordinates": [-45.77498974115468, 33.67864159059462]}}, {"type": "Feature", "properties": {"norad_id": 43013, "name": "NOAA 20 (JPSS-1)", "group": "weather", "lat": -2.504436612046611, "lon": 109.69572941865906, "alt_km": 830.6145799117721, "timestamp": "2025-12-19T20:42:59.723816+00:00", "meta": {"OBJECT_NAME": "NOAA 20 (JPSS-1)", "OBJECT_ID": "2017-073A", "EPOCH": "2025-12-19T04:38:07.043712", "MEAN_MOTION": 14.19527344, "ECCENTRICITY": 0.00021279, "INCLINATION": 98.7607, "RA_OF_ASC_NODE": 289.4195, "ARG_OF_PERICENTER": 78.0381, "MEAN_ANOMALY": 282.1033, "EPHEMERIS_TYPE": 0, "CLASSIFICATION_TYPE": "U", "NORAD_CAT_ID": 43013, "ELEMENT_SET_NO": 999, "REV_AT_EPOCH": 41893, "BSTAR": 4.0900838e-05, "MEAN_MOTION_DOT": 4.2e-07, "MEAN_MOTION_DDOT": 0}, "tle": {"line1": "1 43013U 17073A   25353.19313708  .00000042  00000+0  40901-4 0  9992", "line2": "2 43013  98.7607 289.4195 0002127  78.0381 282.1033 14.19527344418931"}}, "geometry": {"type": "Point", "coordinates": [109.69572941865906, -2.504436612046611]}}, {"type": "Feature", "properties": {"norad_id": 43226, "name": "GOES 17", "group": "weather", "lat": -0.3291730635702431, "lon": -50.04142767437272, "alt_km": 35775.022505089255, "timestamp": "2025-12-19T20:42:59.723828+00:00", "meta": {"OBJECT_NAME": "GOES 17", "OBJECT_ID": "2018-022A", "EPOCH": "2025-12-19T06:09:01.440288", "MEAN_MOTION": 1.00270996, "ECCENTRICITY": 0.00030883, "INCLINATION": 0.4735, "RA_OF_ASC_NODE": 89.1758, "ARG_OF_PERICENTER": 191.1651, "MEAN_ANOMALY": 170.5211, "EPHEMERIS_TYPE": 0, "CLASSIFICATION_TYPE": "U", "NORAD_CAT_ID": 43226, "ELEMENT_SET_NO": 999, "REV_AT_EPOCH": 2862, "BSTAR": 0, "MEAN_MOTION_DOT": -1.58e-06, "MEAN_MOTION_DDOT": 0}, "tle": {"line1": "1 43226U 18022A   25353.25626667 -.00000158  00000+0  00000+0 0  9991", "line2": "2 43226   0.4735  89.1758 0003088 191.1651 170.5211  1.00270996 28628"}}, "geometry": {"type": "Point", "coordinates": [-50.04142767437272, -0.3291730635702431]}}, {"type": "Feature", "properties": {"norad_id": 43491, "name": "FENGYUN 2H", "group": "weather", "lat": 1.587918743105524, "lon": 118.74989534519078, "alt_km": 35792.34021547912, "timestamp": "2025-12-19T20:42:59.723842+00:00", "meta": {"OBJECT_NAME": "FENGYUN 2H", "OBJECT_ID": "2018-050A", "EPOCH": "2025-12-19T03:22:08.639328", "MEAN_MOTION": 1.00271297, "ECCENTRICITY": 0.00023908, "INCLINATION": 2.5668, "RA_OF_ASC_NODE": 81.2619, "ARG_OF_PERICENTER": 165.8734, "MEAN_ANOMALY": 330.7471, "EPHEMERIS_TYPE": 0, "CLASSIFICATION_TYPE": "U", "NORAD_CAT_ID": 43491, "ELEMENT_SET_NO": 999, "REV_AT_EPOCH": 2763, "BSTAR": 0, "MEAN_MOTION_DOT": -1.07e-06, "MEAN_MOTION_DDOT": 0}, "tle": {"line1": "1 43491U 18050A   25353.14037777 -.00000107  00000+0  00000+0 0  9996", "line2": "2 43491   2.5668  81.2619 0002390 165.8734 330.7471  1.00271297 27637"}}, "geometry": {"type": "Point", "coordinates": [118.74989534519078, 1.587918743105524]}}, {"type": "Feature", "properties": {"norad_id": 43689, "name": "METOP-C", "group": "weather", "lat": 13.263612264040894, "lon": 49.4568069053232, "alt_km": 820.7138636653044, "timestamp": "2025-12-19T20:42:59.723854+00:00", "meta": {"OBJECT_NAME": "METOP-C", "OBJECT_ID": "2018-087A", "EPOCH": "2025-12-19T05:26:58.964640", "MEAN_MOTION": 14.21486795, "ECCENTRICITY": 9.318e-05, "INCLINATION": 98.6921, "RA_OF_ASC_NODE": 50.8971, "ARG_OF_PERICENTER": 27.9097, "MEAN_ANOMALY": 332.213, "EPHEMERIS_TYPE": 0, "CLASSIFICATION_TYPE": "U", "NORAD_CAT_ID": 43689, "ELEMENT_SET_NO": 999, "REV_AT_EPOCH": 36926, "BSTAR": 6.9644834e-05, "MEAN_MOTION_DOT": 1.09e-06, "MEAN_MOTION_DDOT": 0}, "tle": {"line1": "1 43689U 18087A   25353.22707135  .00000109  00000+0  69645-4 0  9992", "line2": "2 43689  98.6921  50.8971 0000931  27.9097 332.2130 14.21486795369261"}}, "geometry": {"type": "Point", "coordinates": [49.4568069053232, 13.263612264040894]}}, {"type": "Feature", "properties": {"norad_id": 43823, "name": "GEO-KOMPSAT-2A", "group": "weather", "lat": 0.03385820212358338, "lon": 167.7127654712444, "alt_km": 35785.82170281642, "timestamp": "2025-12-19T20:42:59.723866+00:00", "meta": {"OBJECT_NAME": "GEO-KOMPSAT-2A", "OBJECT_ID": "2018-100A", "EPOCH": "2025-12-19T07:01:33.771072", "MEAN_MOTION": 1.00269958, "ECCENTRICITY": 5.682e-05, "INCLINATION": 0.0576, "RA_OF_ASC_NODE": 142.2015, "ARG_OF_PERICENTER": 316.3726, "MEAN_ANOMALY": 223.2264, "EPHEMERIS_TYPE": 0, "CLASSIFICATION_TYPE": "U", "NORAD_CAT_ID": 43823, "ELEMENT_SET_NO": 999, "REV_AT_EPOCH": 2582, "BSTAR": 0, "MEAN_MOTION_DOT": -3.19e-06, "MEAN_MOTION_DDOT": 0}, "tle": {"line1": "1 43823U 18100A   25353.29275198 -.00000319  00000+0  00000+0 0  9993", "line2": "2 43823   0.0576 142.2015 0000568 316.3726 223.2264  1.00269958 25820"}}, "geometry": {"type": "Point", "coordinates": [167.7127654712444, 0.03385820212358338]}}, {"type": "Feature", "properties": {"norad_id": 44387, "name": "METEOR-M2 2", "group": "weather", "lat": 19.99013273047103, "lon": 156.9459066136931, "alt_km": 809.8840073970214, "timestamp": "2025-12-19T20:42:59.723877+00:00", "meta": {"OBJECT_NAME": "METEOR-M2 2", "OBJECT_ID": "2019-038A", "EPOCH": "2025-12-19T06:28:53.823360", "MEAN_MOTION": 14.24295351, "ECCENTRICITY": 0.000153, "INCLINATION": 98.8969, "RA_OF_ASC_NODE": 333.079, "ARG_OF_PERICENTER": 133.9431, "MEAN_ANOMALY": 226.1874, "EPHEMERIS_TYPE": 0, "CLASSIFICATION_TYPE": "U", "NORAD_CAT_ID": 44387, "ELEMENT_SET_NO": 999, "REV_AT_EPOCH": 33568, "BSTAR": 0.00017424137, "MEAN_MOTION_DOT": 3.57e-06, "MEAN_MOTION_DDOT": 0}, "tle": {"line1": "1 44387U 19038A   25353.27006740  .00000357  00000+0  17424-3 0  9996", "line2": "2 44387  98.8969 333.0790 0001530 133.9431 226.1874 14.24295351335686"}}, "geometry": {"type": "Point", "coordinates": [156.9459066136931, 19.99013273047103]}}, {"type": "Feature", "properties": {"norad_id": 47719, "name": "ARKTIKA-M 1", "group": "weather", "lat": 60.131707048945486, "lon": -158.5736953659373, "alt_km": 35795.27208871809, "timestamp": "2025-12-19T20:42:59.723891+00:00", "meta": {"OBJECT_NAME": "ARKTIKA-M 1", "OBJECT_ID": "2021-016A", "EPOCH": "2025-12-19T01:20:05.500608", "MEAN_MOTION": 2.00630555, "ECCENTRICITY": 0.72074999, "INCLINATION": 63.1749, "RA_OF_ASC_NODE": 83.1285, "ARG_OF_PERICENTER": 269.1501, "MEAN_ANOMALY": 15.5623, "EPHEMERIS_TYPE": 0, "CLASSIFICATION_TYPE": "U", "NORAD_CAT_ID": 47719, "ELEMENT_SET_NO": 999, "REV_AT_EPOCH": 3517, "BSTAR": 0, "MEAN_MOTION_DOT": -1.23e-06, "MEAN_MOTION_DDOT": 0}, "tle": {"line1": "1 47719U 21016A   25353.05561922 -.00000123  00000+0  00000+0 0  9991", "line2": "2 47719  63.1749  83.1285 7207499 269.1501  15.5623  2.00630555 35173"}}, "geometry": {"type": "Point", "coordinates": [-158.5736953659373, 60.131707048945486]}}, {"type": "Feature", "properties": {"norad_id": 49008, "name": "FENGYUN 3E", "group": "weather", "lat": 5.632274130229436, "lon": -6.5697833396845855, "alt_km": 828.3145072958405, "timestamp": "2025-12-19T20:42:59.723902+00:00", "meta": {"OBJECT_NAME": "FENGYUN 3E", "OBJECT_ID": "2021-062A", "EPOCH": "2025-12-19T07:09:35.780256", "MEAN_MOTION": 14.19880133, "ECCENTRICITY": 6.594e-05, "INCLINATION": 98.747, "RA_OF_ASC_NODE": 353.7421, "ARG_OF_PERICENTER": 218.5231, "MEAN_ANOMALY": 141.5898, "EPHEMERIS_TYPE": 0, "CLASSIFICATION_TYPE": "U", "NORAD_CAT_ID": 49008, "ELEMENT_SET_NO": 999, "REV_AT_EPOCH": 23105, "BSTAR": -2.700589e-05, "MEAN_MOTION_DOT": -1.01e-06, "MEAN_MOTION_DDOT": 0}, "tle": {"line1": "1 49008U 21062A   25353.29833079 -.00000101  00000+0 -27006-4 0  9993", "line2": "2 49008  98.7470 353.7421 0000659 218.5231 141.5898 14.19880133231050"}}, "geometry": {"type": "Point", "coordinates": [-6.5697833396845855, 5.632274130229436]}}, {"type": "Feature", "properties": {"norad_id": 51850, "name": "GOES 18", "group": "weather", "lat": -0.01744620882912517, "lon": -97.55312447395401, "alt_km": 35785.1827987269, "timestamp": "2025-12-19T20:42:59.723922+00:00", "meta": {"OBJECT_NAME": "GOES 18", "OBJECT_ID": "2022-021A", "EPOCH": "2025-12-19T05:45:54.864576", "MEAN_MOTION": 1.00272804, "ECCENTRICITY": 4.926e-05, "INCLINATION": 0.01, "RA_OF_ASC_NODE": 64.751, "ARG_OF_PERICENTER": 272.3096, "MEAN_ANOMALY": 60.5151, "EPHEMERIS_TYPE": 0, "CLASSIFICATION_TYPE": "U", "NORAD_CAT_ID": 51850, "ELEMENT_SET_NO": 999, "REV_AT_EPOCH": 478, "BSTAR": 0, "MEAN_MOTION_DOT": 1.21e-06, "MEAN_MOTION_DDOT": 0}, "tle": {"line1": "1 51850U 22021A   25353.24021834  .00000121  00000+0  00000+0 0  9990", "line2": "2 51850   0.0100  64.7510 0000492 272.3096  60.5151  1.00272804  4780"}}, "geometry": {"type": "Point", "coordinates": [-97.55312447395401, -0.01744620882912517]}}]}